STARLINK-34742          
1 64942U 25158L   26171.19689314  .00001343  00000+0  97006-4 0  9990
2 64942  97.3380  34.0783 0002483  92.5253 267.6259 15.05655897 50783
STARLINK-34719          
1 64943U 25158M   26171.20796909  .00001307  00000+0  94508-4 0  9996
2 64943  97.3402  34.0692 0002569  85.9401 274.2121 15.05656657 50781
STARLINK-34373          
1 64944U 25158N   26171.17196559  .00003672  00000+0  25826-3 0  9991
2 64944  97.3396  33.9673 0002175  74.7182 285.4286 15.05656255 50775
STARLINK-34758          
1 64945U 25158P   26170.61814878  .00002612  00000+0  18488-3 0  9990
2 64945  97.3441  33.4912 0002808  77.0637 283.0904 15.05660445 50690
STARLINK-34753          
1 64946U 25158Q   26171.21073555  .00007378  00000+0  51452-3 0  9999
2 64946  97.3436  34.0630 0002667  36.3038 323.8370 15.05666676 50787
STARLINK-34747          
1 64947U 25158R   26170.62368309 -.00000612  00000+0 -38486-4 0  9997
2 64947  97.3405  33.4859 0001957  76.9812 283.1633 15.05660845 50693
STARLINK-34630          
1 64948U 25158S   26171.19135653  .00002867  00000+0  20252-3 0  9998
2 64948  97.3408  34.0930 0002381  79.1366 281.0129 15.05660606 50787
STARLINK-34689          
1 64949U 25158T   26171.17750042  .00002607  00000+0  18451-3 0  9992
2 64949  97.3410  33.9563 0002012  69.6061 290.5382 15.05658669 50779
STARLINK-34586          
1 64950U 25158U   26171.03350750  .00005707  00000+0  39907-3 0  9994
2 64950  97.3406  33.8477 0002062  83.2226 276.9236 15.05662564 50752
STARLINK-34738          
1 64951U 25158V   26171.19966324  .00003321  00000+0  23395-3 0  9996
2 64951  97.3407  34.0823 0002674  86.9859 273.1674 15.05660540 50783
STARLINK-34744          
1 64952U 25158W   26171.18303762  .00002980  00000+0  21033-3 0  9994
2 64952  97.3395  33.9431 0002346  67.8767 292.2710 15.05660367 50774
STARLINK-34701          
1 64953U 25158X   26171.19412954  .00010283  00000+0  71557-3 0  9991
2 64953  97.3403  34.0888 0002149  92.3056 267.8417 15.05652454 50789
STARLINK-34761          
1 64954U 25158Y   26171.18028478  .00020335  00000+0  14099-2 0  9991
2 64954  97.3405  33.9553 0001992 108.3091 251.8353 15.05632885 50778
STARLINK-34732          
1 64955U 25158Z   26171.21349737  .00000729  00000+0  54438-4 0  9998
2 64955  97.3397  34.0632 0002676  88.4152 271.7382 15.05662109 50781
STARLINK-34617          
1 65015U 25161A   26171.28961343  .00128978  00000+0  83217-3 0  9993
2 65015  53.1581 173.6628 0001904 107.3405 252.7824 15.75255134  8331
STARLINK-34627          
1 65016U 25161B   26171.26558847  .00012965  00000+0  44897-3 0  9992
2 65016  53.1600 177.8183 0001344  78.4281 281.6871 15.30208521 51143
STARLINK-34549          
1 65017U 25161C   26171.29290679  .00024076  00000+0  82247-3 0  9999
2 65017  53.1586 177.2809 0000457 109.9049 250.2001 15.30196535 51151
STARLINK-34623          
1 65018U 25161D   26171.28774993  .00017458  00000+0  59994-3 0  9994
2 65018  53.1591 177.9617 0001260  85.1624 274.9521 15.30211885 51032
STARLINK-34232          
1 65019U 25161E   26171.27403030  .00015766  00000+0  54318-3 0  9990
2 65019  53.1592 177.8761 0001439 142.3177 217.7924 15.30206740 51148
STARLINK-34772          
1 65020U 25161F   26171.29476120  .00017898  00000+0  53942-3 0  9994
2 65020  53.1582 176.5867 0001147  78.1137 281.9994 15.34410282 51164
STARLINK-34778          
1 65021U 25161G   26171.28352886  .00015525  00000+0  53507-3 0  9998
2 65021  53.1591 177.9356 0001210  73.6672 286.4462 15.30207884 51021
STARLINK-34789          
1 65022U 25161H   26171.27930664  .00008880  00000+0  31153-3 0  9993
2 65022  53.1592 177.9069 0001224  93.1348 266.9793 15.30206108 51024
STARLINK-34858          
1 65023U 25161J   26171.26981035  .00006427  00000+0  22892-3 0  9996
2 65023  53.1599 177.8470 0001448  96.5686 263.5480 15.30201600 51025
STARLINK-34773          
1 65024U 25161K   26171.29265750  .00023960  00000+0  71770-3 0  9999
2 65024  53.1581 176.5710 0001217  99.1523 260.9617 15.34413363 51043
STARLINK-34727          
1 65025U 25161L   26171.27793318  .00018645  00000+0  56142-3 0  9994
2 65025  53.1593 176.4801 0001906  52.0333 308.0842 15.34408607 51071
STARLINK-34804          
1 65026U 25161M   26171.26453260  .00004878  00000+0  17671-3 0  9990
2 65026  53.1587 177.8152 0001361  82.8241 277.2915 15.30200254 51042
STARLINK-34655          
1 65027U 25161N   26171.29091566  .00018604  00000+0  63857-3 0  9990
2 65027  53.1594 177.9751 0001039  82.1948 277.9170 15.30205875 51039
STARLINK-34807          
1 65028U 25161P   26171.30317867  .00007292  00000+0  22675-3 0  9992
2 65028  53.1579 176.6348 0001086  78.8624 281.2500 15.34397588 51050
STARLINK-34731          
1 65029U 25161Q   26171.28213793  .00021506  00000+0  64554-3 0  9999
2 65029  53.1592 176.5079 0001121  85.7073 274.4058 15.34412747 51058
STARLINK-34614          
1 65030U 25161R   26171.28669330  .00010885  00000+0  37897-3 0  9991
2 65030  53.1594 177.9534 0001126  79.8143 280.2985 15.30209087 51039
