OBJECT_NAME,OBJECT_ID,EPOCH,MEAN_MOTION,ECCENTRICITY,INCLINATION,RA_OF_ASC_NODE,ARG_OF_PERICENTER,MEAN_ANOMALY,EPHEMERIS_TYPE,CLASSIFICATION_TYPE,NORAD_CAT_ID,ELEMENT_SET_NO,REV_AT_EPOCH,BSTAR,MEAN_MOTION_DOT,MEAN_MOTION_DDOT
STARLINK-34742,2025-158L,2026-06-20T04:43:31.567296,15.05655897,.00024838,97.3380,34.0783,92.5253,267.6259,0,U,64942,999,5078,.97006258E-4,.1343E-4,0
STARLINK-34719,2025-158M,2026-06-20T04:59:28.529376,15.05656657,.0002569,97.3402,34.0692,85.9401,274.2121,0,U,64943,999,5078,.94508357E-4,.1307E-4,0
STARLINK-34373,2025-158N,2026-06-20T04:07:37.826976,15.05656255,.0002175,97.3396,33.9673,74.7182,285.4286,0,U,64944,999,5077,.25825883E-3,.3672E-4,0
STARLINK-34758,2025-158P,2026-06-19T14:50:08.054592,15.05660445,.00028088,97.3441,33.4912,77.0637,283.0904,0,U,64945,999,5069,.1848757E-3,.2612E-4,0
STARLINK-34753,2025-158Q,2026-06-20T05:03:27.551520,15.05666676,.00026679,97.3436,34.0630,36.3038,323.8370,0,U,64946,999,5078,.5145229E-3,.7378E-4,0
STARLINK-34747,2025-158R,2026-06-19T14:58:06.218976,15.05660845,.0001957,97.3405,33.4859,76.9812,283.1633,0,U,64947,999,5069,-.38485935E-4,-.612E-5,0
STARLINK-34630,2025-158S,2026-06-20T04:35:33.204192,15.05660606,.00023811,97.3408,34.0930,79.1366,281.0129,0,U,64948,999,5078,.20252108E-3,.2867E-4,0
STARLINK-34689,2025-158T,2026-06-20T04:15:36.036288,15.05658669,.00020123,97.3410,33.9563,69.6061,290.5382,0,U,64949,999,5077,.18450856E-3,.2607E-4,0
STARLINK-34586,2025-158U,2026-06-20T00:48:15.048000,15.05662564,.00020624,97.3406,33.8477,83.2226,276.9236,0,U,64950,999,5075,.39906528E-3,.5707E-4,0
STARLINK-34738,2025-158V,2026-06-20T04:47:30.903936,15.05660540,.00026741,97.3407,34.0823,86.9859,273.1674,0,U,64951,999,5078,.23395026E-3,.3321E-4,0
STARLINK-34744,2025-158W,2026-06-20T04:23:34.450368,15.05660367,.00023468,97.3395,33.9431,67.8767,292.2710,0,U,64952,999,5077,.21033223E-3,.298E-4,0
STARLINK-34701,2025-158X,2026-06-20T04:39:32.792256,15.05652454,.0002149,97.3403,34.0888,92.3056,267.8417,0,U,64953,999,5078,.71556949E-3,.10283E-3,0
STARLINK-34761,2025-158Y,2026-06-20T04:19:36.604992,15.05632885,.00019923,97.3405,33.9553,108.3091,251.8353,0,U,64954,999,5077,.14099204E-2,.20335E-3,0
STARLINK-34732,2025-158Z,2026-06-20T05:07:26.172768,15.05662109,.00026765,97.3397,34.0632,88.4152,271.7382,0,U,64955,999,5078,.54437735E-4,.729E-5,0
STARLINK-34617,2025-161A,2026-06-20T06:57:02.600352,15.75255134,.00019045,53.1581,173.6628,107.3405,252.7824,0,U,65015,999,833,.8321661E-3,.128978E-2,0
STARLINK-34627,2025-161B,2026-06-20T06:22:26.843808,15.30208521,.00013447,53.1600,177.8183,78.4281,281.6871,0,U,65016,999,5114,.44896798E-3,.12965E-3,0
STARLINK-34549,2025-161C,2026-06-20T07:01:47.146656,15.30196535,.00004572,53.1586,177.2809,109.9049,250.2001,0,U,65017,999,5115,.82246535E-3,.24076E-3,0
STARLINK-34623,2025-161D,2026-06-20T06:54:21.593952,15.30211885,.00012603,53.1591,177.9617,85.1624,274.9521,0,U,65018,999,5103,.59994405E-3,.17458E-3,0
STARLINK-34232,2025-161E,2026-06-20T06:34:36.217920,15.30206740,.00014393,53.1592,177.8761,142.3177,217.7924,0,U,65019,999,5114,.54317947E-3,.15766E-3,0
STARLINK-34772,2025-161F,2026-06-20T07:04:27.367680,15.34410282,.0001147,53.1582,176.5867,78.1137,281.9994,0,U,65020,999,5116,.53941546E-3,.17898E-3,0
STARLINK-34778,2025-161G,2026-06-20T06:48:16.893504,15.30207884,.00012107,53.1591,177.9356,73.6672,286.4462,0,U,65021,999,5102,.53507143E-3,.15525E-3,0
STARLINK-34789,2025-161H,2026-06-20T06:42:12.093696,15.30206108,.00012248,53.1592,177.9069,93.1348,266.9793,0,U,65022,999,5102,.31153481E-3,.888E-4,0
STARLINK-34858,2025-161J,2026-06-20T06:28:31.614240,15.30201600,.00014489,53.1599,177.8470,96.5686,263.5480,0,U,65023,999,5102,.22892014E-3,.6427E-4,0
STARLINK-34773,2025-161K,2026-06-20T07:01:25.608000,15.34413363,.00012176,53.1581,176.5710,99.1523,260.9617,0,U,65024,999,5104,.71769814E-3,.2396E-3,0
STARLINK-34727,2025-161L,2026-06-20T06:40:13.426752,15.34408607,.00019065,53.1593,176.4801,52.0333,308.0842,0,U,65025,999,5107,.56142247E-3,.18645E-3,0
STARLINK-34804,2025-161M,2026-06-20T06:20:55.616640,15.30200254,.00013619,53.1587,177.8152,82.8241,277.2915,0,U,65026,999,5104,.17670617E-3,.4878E-4,0
STARLINK-34655,2025-161N,2026-06-20T06:58:55.113024,15.30205875,.00010397,53.1594,177.9751,82.1948,277.9170,0,U,65027,999,5103,.63857459E-3,.18604E-3,0
STARLINK-34807,2025-161P,2026-06-20T07:16:34.637088,15.34397588,.00010862,53.1579,176.6348,78.8624,281.2500,0,U,65028,999,5105,.22675453E-3,.7292E-4,0
STARLINK-34731,2025-161Q,2026-06-20T06:46:16.717152,15.34412747,.00011213,53.1592,176.5079,85.7073,274.4058,0,U,65029,999,5105,.64554312E-3,.21506E-3,0
STARLINK-34614,2025-161R,2026-06-20T06:52:50.301120,15.30209087,.0001126,53.1594,177.9534,79.8143,280.2985,0,U,65030,999,5103,.37897467E-3,.10885E-3,0
